1 08820U 76039A   03011.20828940 -.00000009  00000-0  10000-3 0  8871
2 08820 109.8353 127.8446 0044355 334.9940  24.8512  6.38664747367036
